[
  {
    "OBJECT_NAME": "STARLINK-4663",
    "OBJECT_ID": "22107AA",
    "EPOCH": "2025-11-11T07:11:55.800096",
    "MEAN_MOTION": 15.08839044,
    "ECCENTRICITY": 8.66e-05,
    "INCLINATION": 53.2172,
    "RA_OF_ASC_NODE": 65.3859,
    "ARG_OF_PERICENTER": 54.3084,
    "MEAN_ANOMALY": 305.7988,
    "EPHEMERIS_TYPE": 0,
    "CLASSIFICATION_TYPE": "U",
    "NORAD_CAT_ID": 53724,
    "ELEMENT_SET_NO": 999,
    "REV_AT_EPOCH": 17654,
    "BSTAR": 9.6137e-05,
    "MEAN_MOTION_DOT": 1.243e-05,
    "MEAN_MOTION_DDOT": 0.0,
    "TLE_LINE1": "1 53724U 22107AA  25315.29995139  .00001243  00000+0  96137-4 0  9995",
    "TLE_LINE2": "2 53724  53.2172  65.3859 0000866  54.3084 305.7988 15.08839044176548",
    "COMMENT": "Grouped by shell and plane from TLE"
  },
  {
    "OBJECT_NAME": "STARLINK-4697",
    "OBJECT_ID": "22107AC",
    "EPOCH": "2025-11-11T07:22:32.652768",
    "MEAN_MOTION": 15.08842068,
    "ECCENTRICITY": 0.0001347,
    "INCLINATION": 53.2174,
    "RA_OF_ASC_NODE": 65.432,
    "ARG_OF_PERICENTER": 85.8068,
    "MEAN_ANOMALY": 274.3079,
    "EPHEMERIS_TYPE": 0,
    "CLASSIFICATION_TYPE": "U",
    "NORAD_CAT_ID": 53726,
    "ELEMENT_SET_NO": 999,
    "REV_AT_EPOCH": 17654,
    "BSTAR": 0.0001639,
    "MEAN_MOTION_DOT": 2.322e-05,
    "MEAN_MOTION_DDOT": 0.0,
    "TLE_LINE1": "1 53726U 22107AC  25315.30732237  .00002322  00000+0  16390-3 0  9998",
    "TLE_LINE2": "2 53726  53.2174  65.4320 0001347  85.8068 274.3079 15.08842068176544",
    "COMMENT": "Grouped by shell and plane from TLE"
  },
  {
    "OBJECT_NAME": "STARLINK-4701",
    "OBJECT_ID": "22107AD",
    "EPOCH": "2025-11-11T07:38:27.428928",
    "MEAN_MOTION": 15.08842714,
    "ECCENTRICITY": 0.0001354,
    "INCLINATION": 53.2151,
    "RA_OF_ASC_NODE": 65.5017,
    "ARG_OF_PERICENTER": 92.7515,
    "MEAN_ANOMALY": 267.3632,
    "EPHEMERIS_TYPE": 0,
    "CLASSIFICATION_TYPE": "U",
    "NORAD_CAT_ID": 53727,
    "ELEMENT_SET_NO": 999,
    "REV_AT_EPOCH": 17668,
    "BSTAR": 5.7528e-05,
    "MEAN_MOTION_DOT": 6.28e-06,
    "MEAN_MOTION_DDOT": 0.0,
    "TLE_LINE1": "1 53727U 22107AD  25315.31837302  .00000628  00000+0  57528-4 0  9995",
    "TLE_LINE2": "2 53727  53.2151  65.5017 0001354  92.7515 267.3632 15.08842714176686",
    "COMMENT": "Grouped by shell and plane from TLE"
  },
  {
    "OBJECT_NAME": "STARLINK-4640",
    "OBJECT_ID": "22107AE",
    "EPOCH": "2025-11-11T07:33:09.359424",
    "MEAN_MOTION": 15.08843933,
    "ECCENTRICITY": 0.0001679,
    "INCLINATION": 53.2155,
    "RA_OF_ASC_NODE": 65.4788,
    "ARG_OF_PERICENTER": 91.4183,
    "MEAN_ANOMALY": 268.7001,
    "EPHEMERIS_TYPE": 0,
    "CLASSIFICATION_TYPE": "U",
    "NORAD_CAT_ID": 53728,
    "ELEMENT_SET_NO": 999,
    "REV_AT_EPOCH": 17668,
    "BSTAR": 7.646e-05,
    "MEAN_MOTION_DOT": 9.29e-06,
    "MEAN_MOTION_DDOT": 0.0,
    "TLE_LINE1": "1 53728U 22107AE  25315.31469166  .00000929  00000+0  76460-4 0  9995",
    "TLE_LINE2": "2 53728  53.2155  65.4788 0001679  91.4183 268.7001 15.08843933176681",
    "COMMENT": "Grouped by shell and plane from TLE"
  },
  {
    "OBJECT_NAME": "STARLINK-4651",
    "OBJECT_ID": "22107AF",
    "EPOCH": "2025-11-11T06:18:58.999104",
    "MEAN_MOTION": 15.08837826,
    "ECCENTRICITY": 9.19e-05,
    "INCLINATION": 53.2208,
    "RA_OF_ASC_NODE": 65.871,
    "ARG_OF_PERICENTER": 54.0028,
    "MEAN_ANOMALY": 306.105,
    "EPHEMERIS_TYPE": 0,
    "CLASSIFICATION_TYPE": "U",
    "NORAD_CAT_ID": 53729,
    "ELEMENT_SET_NO": 999,
    "REV_AT_EPOCH": 17670,
    "BSTAR": 0.0,
    "MEAN_MOTION_DOT": -3.22e-06,
    "MEAN_MOTION_DDOT": 0.0,
    "TLE_LINE1": "1 53729U 22107AF  25315.26318286 -.00000322  00000+0 -21572-5 0  9990",
    "TLE_LINE2": "2 53729  53.2208  65.8710 0000919  54.0028 306.1050 15.08837826176707",
    "COMMENT": "Grouped by shell and plane from TLE"
  },
  {
    "OBJECT_NAME": "STARLINK-4641",
    "OBJECT_ID": "22107AG",
    "EPOCH": "2025-11-11T07:43:46.191360",
    "MEAN_MOTION": 15.08846557,
    "ECCENTRICITY": 0.000111,
    "INCLINATION": 53.2168,
    "RA_OF_ASC_NODE": 65.5256,
    "ARG_OF_PERICENTER": 81.9553,
    "MEAN_ANOMALY": 278.1565,
    "EPHEMERIS_TYPE": 0,
    "CLASSIFICATION_TYPE": "U",
    "NORAD_CAT_ID": 53730,
    "ELEMENT_SET_NO": 999,
    "REV_AT_EPOCH": 17668,
    "BSTAR": 9.981700000000001e-05,
    "MEAN_MOTION_DOT": 1.301e-05,
    "MEAN_MOTION_DDOT": 0.0,
    "TLE_LINE1": "1 53730U 22107AG  25315.32206240  .00001301  00000+0  99817-4 0  9997",
    "TLE_LINE2": "2 53730  53.2168  65.5256 0001110  81.9553 278.1565 15.08846557176689",
    "COMMENT": "Grouped by shell and plane from TLE"
  },
  {
    "OBJECT_NAME": "STARLINK-4636",
    "OBJECT_ID": "22107AH",
    "EPOCH": "2025-11-10T17:41:12.963840",
    "MEAN_MOTION": 15.08844095,
    "ECCENTRICITY": 0.0001326,
    "INCLINATION": 53.2166,
    "RA_OF_ASC_NODE": 68.2702,
    "ARG_OF_PERICENTER": 94.6951,
    "MEAN_ANOMALY": 265.4193,
    "EPHEMERIS_TYPE": 0,
    "CLASSIFICATION_TYPE": "U",
    "NORAD_CAT_ID": 53731,
    "ELEMENT_SET_NO": 999,
    "REV_AT_EPOCH": 17662,
    "BSTAR": 4.6333000000000005e-05,
    "MEAN_MOTION_DOT": 4.5e-06,
    "MEAN_MOTION_DDOT": 0.0,
    "TLE_LINE1": "1 53731U 22107AH  25314.73695560  .00000450  00000+0  46333-4 0  9998",
    "TLE_LINE2": "2 53731  53.2166  68.2702 0001326  94.6951 265.4193 15.08844095176621",
    "COMMENT": "Grouped by shell and plane from TLE"
  },
  {
    "OBJECT_NAME": "STARLINK-4661",
    "OBJECT_ID": "22107AJ",
    "EPOCH": "2025-11-10T14:21:12.216384",
    "MEAN_MOTION": 15.08847335,
    "ECCENTRICITY": 0.0001608,
    "INCLINATION": 53.2149,
    "RA_OF_ASC_NODE": 68.8245,
    "ARG_OF_PERICENTER": 93.7815,
    "MEAN_ANOMALY": 266.3361,
    "EPHEMERIS_TYPE": 0,
    "CLASSIFICATION_TYPE": "U",
    "NORAD_CAT_ID": 53732,
    "ELEMENT_SET_NO": 999,
    "REV_AT_EPOCH": 17657,
    "BSTAR": 0.0001281,
    "MEAN_MOTION_DOT": 1.752e-05,
    "MEAN_MOTION_DDOT": 0.0,
    "TLE_LINE1": "1 53732U 22107AJ  25314.59805806  .00001752  00000+0  12810-3 0  9997",
    "TLE_LINE2": "2 53732  53.2149  68.8245 0001608  93.7815 266.3361 15.08847335176574",
    "COMMENT": "Grouped by shell and plane from TLE"
  },
  {
    "OBJECT_NAME": "STARLINK-4574",
    "OBJECT_ID": "22107AK",
    "EPOCH": "2025-11-10T11:30:17.339904",
    "MEAN_MOTION": 15.08842623,
    "ECCENTRICITY": 0.0001255,
    "INCLINATION": 53.2169,
    "RA_OF_ASC_NODE": 69.5043,
    "ARG_OF_PERICENTER": 85.036,
    "MEAN_ANOMALY": 275.0776,
    "EPHEMERIS_TYPE": 0,
    "CLASSIFICATION_TYPE": "U",
    "NORAD_CAT_ID": 53733,
    "ELEMENT_SET_NO": 999,
    "REV_AT_EPOCH": 17658,
    "BSTAR": 0.0001495,
    "MEAN_MOTION_DOT": 2.092e-05,
    "MEAN_MOTION_DDOT": 0.0,
    "TLE_LINE1": "1 53733U 22107AK  25314.47936736  .00002092  00000+0  14950-3 0  9997",
    "TLE_LINE2": "2 53733  53.2169  69.5043 0001255  85.0360 275.0776 15.08842623176581",
    "COMMENT": "Grouped by shell and plane from TLE"
  },
  {
    "OBJECT_NAME": "STARLINK-4616",
    "OBJECT_ID": "22107AL",
    "EPOCH": "2025-11-10T11:09:03.801312",
    "MEAN_MOTION": 15.0883689,
    "ECCENTRICITY": 0.0001226,
    "INCLINATION": 53.2163,
    "RA_OF_ASC_NODE": 69.4161,
    "ARG_OF_PERICENTER": 93.339,
    "MEAN_ANOMALY": 266.7742,
    "EPHEMERIS_TYPE": 0,
    "CLASSIFICATION_TYPE": "U",
    "NORAD_CAT_ID": 53734,
    "ELEMENT_SET_NO": 999,
    "REV_AT_EPOCH": 17658,
    "BSTAR": 0.00016051000000000002,
    "MEAN_MOTION_DOT": 2.267e-05,
    "MEAN_MOTION_DDOT": 0.0,
    "TLE_LINE1": "1 53734U 22107AL  25314.46462733  .00002267  00000+0  16051-3 0  9996",
    "TLE_LINE2": "2 53734  53.2163  69.4161 0001226  93.3390 266.7742 15.08836890176588",
    "COMMENT": "Grouped by shell and plane from TLE"
  },
  {
    "OBJECT_NAME": "STARLINK-4652",
    "OBJECT_ID": "22107AN",
    "EPOCH": "2025-11-11T06:29:35.324736",
    "MEAN_MOTION": 15.08842215,
    "ECCENTRICITY": 0.0001532,
    "INCLINATION": 53.2223,
    "RA_OF_ASC_NODE": 65.9169,
    "ARG_OF_PERICENTER": 102.5966,
    "MEAN_ANOMALY": 257.5197,
    "EPHEMERIS_TYPE": 0,
    "CLASSIFICATION_TYPE": "U",
    "NORAD_CAT_ID": 53736,
    "ELEMENT_SET_NO": 999,
    "REV_AT_EPOCH": 17670,
    "BSTAR": 0.00032447,
    "MEAN_MOTION_DOT": 4.88e-05,
    "MEAN_MOTION_DDOT": 0.0,
    "TLE_LINE1": "1 53736U 22107AN  25315.27054774  .00004880  00000+0  32447-3 0  9990",
    "TLE_LINE2": "2 53736  53.2223  65.9169 0001532 102.5966 257.5197 15.08842215176702",
    "COMMENT": "Grouped by shell and plane from TLE"
  },
  {
    "OBJECT_NAME": "STARLINK-4727",
    "OBJECT_ID": "22111AG",
    "EPOCH": "2025-11-11T07:15:17.202816",
    "MEAN_MOTION": 15.08840047,
    "ECCENTRICITY": 0.000126,
    "INCLINATION": 53.2163,
    "RA_OF_ASC_NODE": 60.6274,
    "ARG_OF_PERICENTER": 79.0999,
    "MEAN_ANOMALY": 281.0135,
    "EPHEMERIS_TYPE": 0,
    "CLASSIFICATION_TYPE": "U",
    "NORAD_CAT_ID": 53803,
    "ELEMENT_SET_NO": 999,
    "REV_AT_EPOCH": 17615,
    "BSTAR": 4.6176e-05,
    "MEAN_MOTION_DOT": 4.47e-06,
    "MEAN_MOTION_DDOT": 0.0,
    "TLE_LINE1": "1 53803U 22111AG  25315.30228244  .00000447  00000+0  46176-4 0  9999",
    "TLE_LINE2": "2 53803  53.2163  60.6274 0001260  79.0999 281.0135 15.08840047176155",
    "COMMENT": "Grouped by shell and plane from TLE"
  },
  {
    "OBJECT_NAME": "STARLINK-4763",
    "OBJECT_ID": "22111AJ",
    "EPOCH": "2025-11-11T07:27:16.513920",
    "MEAN_MOTION": 15.08840828,
    "ECCENTRICITY": 0.0001477,
    "INCLINATION": 53.2147,
    "RA_OF_ASC_NODE": 60.6739,
    "ARG_OF_PERICENTER": 91.2264,
    "MEAN_ANOMALY": 268.8898,
    "EPHEMERIS_TYPE": 0,
    "CLASSIFICATION_TYPE": "U",
    "NORAD_CAT_ID": 53805,
    "ELEMENT_SET_NO": 999,
    "REV_AT_EPOCH": 17615,
    "BSTAR": 4.5171000000000005e-05,
    "MEAN_MOTION_DOT": 4.31e-06,
    "MEAN_MOTION_DDOT": 0.0,
    "TLE_LINE1": "1 53805U 22111AJ  25315.31060780  .00000431  00000+0  45171-4 0  9998",
    "TLE_LINE2": "2 53805  53.2147  60.6739 0001477  91.2264 268.8898 15.08840828176152",
    "COMMENT": "Grouped by shell and plane from TLE"
  }
]